ONEWEB-0645             
1 55809U 23029P   24164.19740206  .00000114  00000+0  25359-3 0  9991
2 55809  87.9159  91.2411 0002626  85.0714 275.0718 13.19725285 62659
ONEWEB-0646             
1 55810U 23029Q   24164.22740094  .00000177  00000+0  41088-3 0  9998
2 55810  87.9157  91.2345 0002281  74.6474 285.4910 13.19724045 62640
ONEWEB-0648             
1 55811U 23029R   24164.19518682  .00000222  00000+0  56443-3 0  9993
2 55811  87.8971  75.9334 0003129  81.0105 279.1379 13.14502698 63548
ONEWEB-0649             
1 55812U 23029S   24164.19027850  .00000137  00000+0  31022-3 0  9997
2 55812  87.9157  91.2379 0002588  79.6994 280.4431 13.19723955 62676
ONEWEB-0650             
1 55813U 23029T   24164.18555704  .00000111  00000+0  24516-3 0  9993
2 55813  87.9159  91.2404 0002375  74.7755 285.3640 13.19725644 62643
ONEWEB-0652             
1 55814U 23029U   24164.17614678 -.00000095  00000+0 -29017-3 0  9993
2 55814  87.8971  75.9490 0001824  79.7084 280.4252 13.14505334 63493
ONEWEB-0653             
1 55815U 23029V   24164.16028542 -.00000078  00000+0 -24592-3 0  9996
2 55815  87.8976  75.9320 0001955  88.6337 271.5016 13.14502608 63520
ONEWEB-0654             
1 55816U 23029W   24164.15553497 -.00000021  00000+0 -92085-4 0  9999
2 55816  87.8975  75.9434 0001552  86.5280 273.6027 13.14503212 63542
